STARLINK-34128
1 63892U 25095C   26059.83395119  .10864389  89706-5  46844-2 0  9992
2 63892  42.9923 220.0314 0005959 293.3629  66.6630 16.21663642 46502
